#dV2023  1  2 10  0  0.00000000    1682       CTS   FIT  GFZ
## 2243 122400.00000000    30.00000000 59946 0.4166666666667
+    1   L64  0  0  0  0  0  0  0  0  0  0  0  0  0  0  0  0
+          0  0  0  0  0  0  0  0  0  0  0  0  0  0  0  0  0
+          0  0  0  0  0  0  0  0  0  0  0  0  0  0  0  0  0
+          0  0  0  0  0  0  0  0  0  0  0  0  0  0  0  0  0
+          0  0  0  0  0  0  0  0  0  0  0  0  0  0  0  0  0
++         0  0  0  0  0  0  0  0  0  0  0  0  0  0  0  0  0
++         0  0  0  0  0  0  0  0  0  0  0  0  0  0  0  0  0
++         0  0  0  0  0  0  0  0  0  0  0  0  0  0  0  0  0
++         0  0  0  0  0  0  0  0  0  0  0  0  0  0  0  0  0
++         0  0  0  0  0  0  0  0  0  0  0  0  0  0  0  0  0
%c L  cc GPS ccc cccc cccc cccc cccc ccccc ccccc ccccc ccccc
%c cc cc ccc ccc cccc cccc cccc cccc ccccc ccccc ccccc ccccc
%f  0.0000000  0.000000000  0.00000000000  0.000000000000000
%f  0.0000000  0.000000000  0.00000000000  0.000000000000000
%i    0    0    0    0      0      0      0      0         0
%i    0    0    0    0      0      0      0      0         0
/* CCCCCCCCCCCCCCCCCCCCCCCCCCCCCCCCCCCCCCCCCCCCCCCCCCCCCCCCCCCCCCCCCCCCCCCCCCCCC
/* C                             GFZ RSO-ORBIT                                 C
/* C DOI: https://doi.org/10.5880/GFZ_ORBIT/RSO/L64_G_v02                      C
/* C                                                                           C
/* C DORIS        RMS: not applicable                                          C
/* C GNSS-E Code  RMS: not applicable                                          C
/* C GNSS-E Phase RMS: not applicable                                          C
/* C GNSS-G Code  RMS:  49.314 [cm]   Obs.acc.:     14240 Obs.eli.:      1245  C
/* C GNSS-G Phase RMS:   3.818 [mm]   Obs.acc.:     14240 Obs.eli.:      1245  C
/* C SLR          RMS:   1.143 [cm]   Obs.acc.:       112 Obs.eli.:         0  C
/* C                                                                           C
/* CCCCCCCCCCCCCCCCCCCCCCCCCCCCCCCCCCCCCCCCCCCCCCCCCCCCCCCCCCCCCCCCCCCCCCCCCCCCC
*  2023  1  2 21  3  0.00000000
PL64  -4700.659275   4957.016377    805.707312  16749.732124
VL64  -3525.975662   8995.065011 -75565.869645 999999.999999
*  2023  1  2 21  3 30.00000000
PL64  -4708.597747   4981.292631    578.605672  16750.190622
VL64  -1767.173753   7186.339227 -75821.258990 999999.999999
*  2023  1  2 21  4  0.00000000
PL64  -4711.268334   5000.118843    350.863675  16750.649743
VL64    -14.388358   5362.044307 -75992.734025 999999.999999
*  2023  1  2 21  4 30.00000000
PL64  -4708.692102   5013.451380    122.733377  16751.109017
VL64   1730.372657   3524.233554 -76080.103013 999999.999999
*  2023  1  2 21  5  0.00000000
PL64  -4700.896115   5021.252805   -105.532738  16751.568059
VL64   3465.117573   1674.984743 -76083.269765 999999.999999
*  2023  1  2 21  5 30.00000000
PL64  -4687.913387   5023.491950   -333.682038  16752.027008
VL64   5187.873057   -183.601491 -76002.235739 999999.999999
*  2023  1  2 21  6  0.00000000
PL64  -4669.782816   5020.143978   -561.462050  16752.486162
VL64   6896.690262  -2049.405560 -75837.103198 999999.999999
*  2023  1  2 21  6 30.00000000
PL64  -4646.549101   5011.190430   -788.620756  16752.945434
VL64   8589.652343  -3920.296007 -75588.072274 999999.999999
*  2023  1  2 21  7  0.00000000
PL64  -4618.262642   4996.619256  -1014.906872  16753.404541
VL64  10264.874970  -5794.131791 -75255.432293 999999.999999
*  2023  1  2 21  7 30.00000000
PL64  -4584.979449   4976.424848  -1240.070114  16753.863261
VL64  11920.500640  -7668.758721 -74839.560239 999999.999999
*  2023  1  2 21  8  0.00000000
PL64  -4546.761068   4950.608079  -1463.861470  16754.322366
VL64  13554.697513  -9542.010224 -74340.927931 999999.999999
*  2023  1  2 21  8 30.00000000
PL64  -4503.674494   4919.176334  -1686.033489  16754.781509
VL64  15165.665744 -11411.713797 -73760.105746 999999.999999
*  2023  1  2 21  9  0.00000000
PL64  -4455.792065   4882.143517  -1906.340577  16755.240804
VL64  16751.643928 -13275.696577 -73097.759711 999999.999999
*  2023  1  2 21  9 30.00000000
PL64  -4403.191343   4839.530046  -2124.539277  16755.700017
VL64  18310.911428 -15131.788159 -72354.646719 999999.999999
*  2023  1  2 21 10  0.00000000
PL64  -4345.954989   4791.362847  -2340.388533  16756.158798
VL64  19841.788273 -16977.821526 -71531.612491 999999.999999
*  2023  1  2 21 10 30.00000000
PL64  -4284.170643   4737.675338  -2553.649963  16756.618355
VL64  21342.636325 -18811.634542 -70629.592009 999999.999999
*  2023  1  2 21 11  0.00000000
PL64  -4217.930794   4678.507414  -2764.088121  16757.077147
VL64  22811.862229 -20631.072990 -69649.609686 999999.999999
*  2023  1  2 21 11 30.00000000
PL64  -4147.332639   4613.905417  -2971.470768  16757.536327
VL64  24247.920365 -22433.995145 -68592.776964 999999.999999
*  2023  1  2 21 12  0.00000000
PL64  -4072.477939   4543.922087  -3175.569124  16757.994870
VL64  25649.313134 -24218.274474 -67460.288445 999999.999999
*  2023  1  2 21 12 30.00000000
PL64  -3993.472877   4468.616524  -3376.158116  16758.453764
VL64  27014.591515 -25981.800206 -66253.420734 999999.999999
*  2023  1  2 21 13  0.00000000
PL64  -3910.427905   4388.054133  -3573.016625  16758.912715
VL64  28342.357221 -27722.478856 -64973.531830 999999.999999
*  2023  1  2 21 13 30.00000000
PL64  -3823.457594   4302.306572  -3765.927722  16759.371689
VL64  29631.263688 -29438.237257 -63622.060209 999999.999999
*  2023  1  2 21 14  0.00000000
PL64  -3732.680476   4211.451680  -3954.678919  16759.829541
VL64  30880.018419 -31127.026561 -62200.524017 999999.999999
*  2023  1  2 21 14 30.00000000
PL64  -3638.218873   4115.573403  -4139.062393  16760.287947
VL64  32087.385994 -32786.825932 -60710.517083 999999.999999
*  2023  1  2 21 15  0.00000000
PL64  -3540.198728   4014.761707  -4318.875213  16760.746973
VL64  33252.187093 -34415.643979 -59153.703936 999999.999999
*  2023  1  2 21 15 30.00000000
PL64  -3438.749444   3909.112484  -4493.919543  16761.206244
VL64  34373.296737 -36011.518870 -57531.819131 999999.999999
*  2023  1  2 21 16  0.00000000
PL64  -3334.003710   3798.727468  -4664.002859  16761.665307
VL64  35449.646008 -37572.520443 -55846.667764 999999.999999
*  2023  1  2 21 16 30.00000000
PL64  -3226.097340   3683.714131  -4828.938154  16762.124333
VL64  36480.224244 -39096.753280 -54100.123550 999999.999999
*  2023  1  2 21 17  0.00000000
PL64  -3115.169089   3564.185576  -4988.544145  16762.582986
VL64  37464.080222 -40582.359269 -52294.126171 999999.999999
*  2023  1  2 21 17 30.00000000
PL64  -3001.360474   3440.260422  -5142.645459  16763.041671
VL64  38400.322919 -42027.519742 -50430.678713 999999.999999
*  2023  1  2 21 18  0.00000000
PL64  -2884.815597   3312.062682  -5291.072829  16763.500614
VL64  39288.122148 -43430.457488 -48511.845396 999999.999999
*  2023  1  2 21 18 30.00000000
PL64  -2765.680956   3179.721635  -5433.663267  16763.959637
VL64  40126.709220 -44789.438958 -46539.749370 999999.999999
*  2023  1  2 21 19  0.00000000
PL64  -2644.105262   3043.371694  -5570.260240  16764.418520
VL64  40915.377678 -46102.776604 -44516.570185 999999.999999
*  2023  1  2 21 19 30.00000000
PL64  -2520.239254   2903.152261  -5700.713836  16764.877627
VL64  41653.483815 -47368.830958 -42444.540871 999999.999999
*  2023  1  2 21 20  0.00000000
PL64  -2394.235505   2759.207583  -5824.880918  16765.336814
VL64  42340.446884 -48586.012376 -40325.945176 999999.999999
*  2023  1  2 21 20 30.00000000
PL64  -2266.248236   2611.686599  -5942.625271  16765.795909
VL64  42975.749334 -49752.782873 -38163.115100 999999.999999
*  2023  1  2 21 21  0.00000000
PL64  -2136.433125   2460.742782  -6053.817750  16766.255194
VL64  43558.937259 -50867.658290 -35958.428113 999999.999999
*  2023  1  2 21 21 30.00000000
PL64  -2004.947119   2306.533975  -6158.336401  16766.714402
VL64  44089.620593 -51929.210107 -33714.303239 999999.999999
*  2023  1  2 21 22  0.00000000
PL64  -1871.948236   2149.222220  -6256.066587  16767.173555
VL64  44567.471672 -52936.065456 -31433.197323 999999.999999
*  2023  1  2 21 22 30.00000000
PL64  -1737.595390   1988.973598  -6346.901097  16767.632962
VL64  44992.223559 -53886.906988 -29117.604649 999999.999999
*  2023  1  2 21 23  0.00000000
PL64  -1602.048201   1825.958053  -6430.740259  16768.092705
VL64  45363.670912 -54780.475308 -26770.057116 999999.999999
*  2023  1  2 21 23 30.00000000
PL64  -1465.466813   1660.349219  -6507.492050  16768.552455
VL64  45681.671475 -55615.572394 -24393.121398 999999.999999
*  2023  1  2 21 24  0.00000000
PL64  -1328.011700   1492.324227  -6577.072196  16769.011984
VL64  45946.146428 -56391.063986 -21989.394823 999999.999999
*  2023  1  2 21 24 30.00000000
PL64  -1189.843478   1322.063513  -6639.404251  16769.471381
VL64  46157.080344 -57105.880408 -19561.500614 999999.999999
*  2023  1  2 21 25  0.00000000
PL64  -1051.122715   1149.750627  -6694.419676  16769.930327
VL64  46314.519515 -57759.016183 -17112.084101 999999.999999
*  2023  1  2 21 25 30.00000000
PL64   -912.009752    975.572039  -6742.057898  16770.389532
VL64  46418.569860 -58349.530679 -14643.811187 999999.999999
*  2023  1  2 21 26  0.00000000
PL64   -772.664522    799.716941  -6782.266371  16770.848720
VL64  46469.396321 -58876.549552 -12159.366596 999999.999999
*  2023  1  2 21 26 30.00000000
PL64   -633.246376    622.377047  -6815.000627  16771.307889
VL64  46467.222579 -59339.265190  -9661.451919 999999.999999
*  2023  1  2 21 27  0.00000000
PL64   -493.913906    443.746395  -6840.224330  16771.767153
VL64  46412.331072 -59736.937704  -7152.784860 999999.999999
*  2023  1  2 21 27 30.00000000
PL64   -354.824767    264.021136  -6857.909315  16772.226671
VL64  46305.063677 -60068.897589  -4636.096955 999999.999999
*  2023  1  2 21 28  0.00000000
PL64   -216.135501     83.399322  -6868.035631  16772.686218
VL64  46145.821558 -60334.547236  -2114.129057 999999.999999
EOF
